0 DMSP 5D-2 F13 DEB
1 40499U 95015CN  19341.87831083 +.00000707 +00000-0 +35412-3 0  9994
2 40499 098.7792 344.7999 0013973 333.5094 026.5366 14.19840058245408
0 DMSP 5D-2 F13 DEB
1 40499U 95015CN  19342.30113067  .00000707  00000-0  35396-3 0  9999
2 40499  98.7792 345.2192 0013966 332.2849  27.7582 14.19840704246812
0 DMSP 5D-2 F13 DEB
1 40501U 95015CQ  19341.07050999 +.00001995 +00000-0 +35783-3 0  9990
2 40501 098.6345 079.9942 0127687 039.9745 321.0770 14.62799786252036
0 DMSP 5D-2 F13 DEB
1 40501U 95015CQ  19342.09653024  .00002002  00000-0  35920-3 0  9994
2 40501  98.6347  81.0675 0127602  36.7691 324.2178 14.62803898253620
0 DMSP 5D-2 F13 DEB
1 40502U 95015CR  19342.68784642  .00003398  00000-0  84101-3 0  9995
2 40502  98.8102  61.4631 0078952 158.6076 201.8448 14.50813665251246
0 EXPRESS AM-7
1 40505U 15012A   19341.91993727 +.00000168 +00000-0 +00000-0 0  9993
2 40505 000.0060 302.7041 0002566 310.2417 194.6400 01.00270760017461
0 BREEZE-M R/B
1 40506U 15012B   19341.22624523 -.00000148 +00000-0 +00000-0 0  9992
2 40506 019.9297 225.9687 5811007 167.8733 216.5479 02.11097715036411
0 BREEZE-M R/B
1 40506U 15012B   19342.17259010 -.00000112  00000-0  00000+0 0  9992
2 40506  19.9289 225.8110 5811036 168.1603 215.7169  2.11097466 36414
0 DMSP 5D-2 F13 DEB
1 40508U 95015CU  19342.39693468  .00000624  00000-0  40207-3 0  9992
2 40508  98.9108 321.9668 0057567 347.5472  12.4271 14.05920264245428
0 DMSP 5D-2 F13 DEB
1 40508U 95015CU  19341.75643395 +.00000598 +00000-0 +38630-3 0  9992
2 40508 098.9107 321.3367 0057587 349.3008 010.6931 14.05919449241662
0 DMSP 5D-2 F13 DEB
1 40509U 95015CV  19341.23575516 +.00000077 +00000-0 +56489-4 0  9990
2 40509 098.7709 353.5639 0024570 019.8221 340.3904 14.20136295244056
0 DMSP 5D-2 F13 DEB
1 40510U 95015CW  19341.55218026 +.00004666 +00000-0 +80179-3 0  9997
2 40510 098.7706 097.8312 0090876 060.8700 300.1561 14.66484826250631
0 DMSP 5D-2 F13 DEB
1 40510U 95015CW  19342.30270762  .00004638  00000-0  79701-3 0  9994
2 40510  98.7706  98.6332 0090756  58.4856 302.5172 14.66492149253267
0 DMSP 5D-2 F13 DEB
1 40511U 95015CX  19342.30634191  .00001017  00000-0  53982-3 0  9996
2 40511  98.8552 346.9365 0021084 262.7983  97.0794 14.15745093246320
0 DMSP 5D-2 F13 DEB
1 40514U 95015DA  19342.78069290  .00009514  00000-0  17893-2 0  9993
2 40514  98.9835  82.9438 0042449 155.4120 204.9116 14.64282294254638
0 DMSP 5D-2 F13 DEB
1 40515U 95015DB  19341.94306918  .00000793  00000-0  43672-3 0  9997
2 40515  98.8355 334.0961 0028291 295.3330  64.4913 14.14294348245893
0 DMSP 5D-2 F13 DEB
1 40515U 95015DB  19341.23560843 +.00000797 +00000-0 +43860-3 0  9991
2 40515 098.8356 333.3965 0028312 297.3477 062.4815 14.14293134242773
0 DMSP 5D-2 F13 DEB
1 40516U 95015DC  19341.42618774 +.00000749 +00000-0 +39439-3 0  9994
2 40516 098.8016 334.5781 0027085 173.5895 186.5631 14.16848682243323
0 DMSP 5D-2 F13 DEB
1 40516U 95015DC  19342.41485253  .00000731  00000-0  38556-3 0  9998
2 40516  98.8016 335.5563 0027098 170.7340 189.4340 14.16850159246313
0 DMSP 5D-2 F13 DEB
1 40517U 95015DD  19341.83778271 +.00000861 +00000-0 +38633-3 0  9999
2 40517 098.7339 355.2568 0029059 328.0836 031.8582 14.24843511244658
0 DMSP 5D-2 F13 DEB
1 40518U 95015DE  19342.14508639  .00001212  00000-0  32468-3 0  9995
2 40518  98.6869  52.2769 0108798 153.9744 206.6974 14.46688102251195
0 DMSP 5D-2 F13 DEB
1 40519U 95015DF  19342.50536060  .00001567  00000-0  33984-3 0  9992
2 40519  98.6738  71.9425 0125159  92.4048 269.1484 14.54889697252509
0 DMSP 5D-2 F13 DEB
1 40519U 95015DF  19340.99233299 +.00001564 +00000-0 +33923-3 0  9991
2 40519 098.6737 070.3728 0125302 096.9994 264.5471 14.54884691249405
0 DMSP 5D-2 F13 DEB
1 40520U 95015DG  19341.31166397 +.00001418 +00000-0 +56833-3 0  9997
2 40520 098.7338 010.5066 0033703 359.3361 000.7770 14.29588809245236
0 DMSP 5D-2 F13 DEB
1 40520U 95015DG  19342.36150784  .00001426  00000-0  57122-3 0  9997
2 40520  98.7337  11.5591 0033711 356.0860   4.0053 14.29591910248215
0 DMSP 5D-2 F13 DEB
1 40521U 95015DH  19342.86157442  .00000949  00000-0  39364-3 0  9998
2 40521  98.7256  11.6402 0038570 348.7999  11.2320 14.28498866248310
0 DMSP 5D-2 F13 DEB
1 40521U 95015DH  19341.81092850 +.00000952 +00000-0 +39493-3 0  9990
2 40521 098.7257 010.5898 0038580 351.9708 008.0851 14.28496822245616
0 DMSP 5D-2 F13 DEB
1 40522U 95015DJ  19341.24018782 +.00001639 +00000-0 +73147-3 0  9997
2 40522 098.7608 351.4210 0002044 351.2618 008.8524 14.24125713244204
0 DMSP 5D-2 F13 DEB
1 40522U 95015DJ  19342.85612273  .00001637  00000-0  73059-3 0  9990
2 40522  98.7606 353.0314 0002114 344.4726  15.6387 14.24131183247199
0 DMSP 5D-2 F13 DEB
1 40524U 95015DL  19342.32466613  .00001772  00000-0  55103-3 0  9999
2 40524  98.5943   9.6101 0074611 259.2667 100.0115 14.40685505250292
0 DMSP 5D-2 F13 DEB
1 40525U 95015DM  19342.74633497  .00000776  00000-0  39639-3 0  9991
2 40525  98.8159 354.0168 0018582 329.4887  30.5206 14.18468179246524
0 DMSP 5D-2 F13 DEB
1 40525U 95015DM  19341.26503542 +.00000772 +00000-0 +39461-3 0  9993
2 40525 098.8161 352.5450 0018568 333.8645 026.1592 14.18465696243504
0 DMSP 5D-2 F13 DEB
1 40527U 95015DP  19341.63748243 +.00000645 +00000-0 +40107-3 0  9993
2 40527 098.8360 313.4356 0052309 309.4037 050.2507 14.07845665241781
0 TITAN 4B DEB
1 40528U 00047E   19341.92390928 -.00000080 +00000-0 +40362-5 0  9999
2 40528 067.9958 273.4959 0057017 057.1418 007.2659 14.92339543256757
0 TITAN 4B DEB
1 40529U 00047F   19341.88211116 -.00000091 +00000-0 +29684-5 0  9992
2 40529 067.9957 269.9656 0056646 055.9671 304.6830 14.92671220256795
0 TITAN 4B DEB
1 40529U 00047F   19342.15014130 -.00000084  00000-0  36807-5 0  9997
2 40529  67.9958 269.2317 0056652  55.6481 305.0000 14.92671277329366
0 CZ-4B DEB
1 40531U 13057D   19341.62065501 +.00000404 +00000-0 +10081-3 0  9993
2 40531 074.9779 104.6836 0230769 225.3206 132.8951 14.39466755247465
0 CZ-4B DEB
1 40533U 13057F   19340.92808715 +.00000388 +00000-0 +92957-4 0  9993
2 40533 074.9295 069.6374 0213791 213.0671 145.6977 14.43393352247965
0 CZ-4B DEB
1 40533U 13057F   19341.96776942  .00000382  00000-0  91683-4 0  9993
2 40533  74.9296  67.8097 0213765 210.7509 148.0988 14.43394209321002
0 NAVSTAR 73 (USA 260)
1 40534U 15013A   19342.35271590 -.00000055  00000-0  00000+0 0  9997
2 40534  54.3772 302.7732 0043051   4.8179 355.2152  2.00559087 34468
0 NAVSTAR 73 (USA 260)
1 40534U 15013A   19342.35271590 -.00000055  00000-0  00000+0 0  9997
2 40534  54.3772 302.7732 0043051   4.8179 355.2152  2.00559087 34468
0 DELTA 4 R/B
1 40535U 15013B   19341.32500882 -.00000060 +00000-0 +00000-0 0  9990
2 40535 054.0759 307.7022 0029555 019.1666 340.9384 01.92975230033156
0 KOMPSAT 3A
1 40536U 15014A   19342.85556794  .00000030  00000-0  55023-5 0  9990
2 40536  97.5674 279.4276 0010917  81.9198   2.9087 15.12067052259763
0 KOMPSAT 3A
1 40536U 15014A   19342.52981823 -.00000025  00000-0  23169-5 0  9990
2 40536  97.5673 279.1049 0010923  82.5241  30.2208 15.12066463259719
0 KOMPSAT 3A
1 40536U 15014A   19342.19861476 -.00000089  00000-0 -13690-5 0  9993
2 40536  97.5674 278.7768 0010923  83.6749  27.3205 15.12065933259667
0 SL-24 DEB
1 40537U 15014B   19342.02252605  .00009033  00000-0  15732-3 0  9997
2 40537  97.6501 357.6171 0009568 336.1369  23.9438 15.50962107263666
0 SL-24 DEB
1 40537U 15014B   19341.57089793 +.00008704 +00000-0 +15171-3 0  9993
2 40537 097.6503 357.1373 0009619 337.9051 022.1784 15.50953592261820
0 GALILEO 7 (263)
1 40544U 15017A   19341.33280671 -.00000076 +00000-0 +00000-0 0  9993
2 40544 056.2926 046.7640 0005126 244.0368 115.9547 01.70475363028566
0 GALILEO 8 (264)
1 40545U 15017B   19342.28764214 -.00000072  00000-0  00000+0 0  9994
2 40545  56.3000  46.7524 0003501 217.3650 142.6579  1.70475656 29247
0 IRNSS 1D
1 40547U 15018A   19342.84441806 -.00000297  00000-0  00000+0 0  9997
2 40547  28.8687 280.4428 0018286 184.2264  28.4003  1.00277235 17351
0 IRNSS 1D
1 40547U 15018A   19341.76456469 -.00000300 +00000-0 +00000-0 0  9994
2 40547 028.8711 280.4607 0018336 184.5756 358.2072 01.00277781017090
0 PSLV R/B
1 40548U 15018B   19341.75430783 +.00000564 +00000-0 +91739-4 0  9999
2 40548 019.0293 029.2748 5996955 148.1539 268.9128 04.05480800068210
0 PSLV R/B
1 40548U 15018B   19342.24647821  .00000620  00000-0  97619-4 0  9993
2 40548  19.0292  28.8783 5996891 148.8803 267.3501  4.05481499 68575
0 BD-17
1 40549U 15019A   19341.93598884 -.00000172 +00000-0 +00000-0 0  9991
2 40549 053.3342 323.4173 0036247 194.6239 352.2495 01.00273373017186
0 GONETS M 11 (M21)
1 40552U 15020A   19341.72315449 +.00000029 +00000-0 +13910-3 0  9995
2 40552 082.4881 076.0327 0017024 159.8397 200.3358 12.42891488212687
0 GONETS M 11 (M21)
1 40552U 15020A   19342.20613587  .00000029  00000-0  13910-3 0  9993
2 40552  82.4881  75.7319 0017024 158.7872 201.3917 12.42891507212741
0 COSMOS 2504
1 40555U 15020D   19341.90244906 -.00000034 +00000-0 -16821-4 0  9990
2 40555 082.5195 269.1941 0613026 259.0175 094.1466 13.59120463226240
0 COSMOS 2504
1 40555U 15020D   19342.71225350 -.00000033  00000-0 -16821-4 0  9991
2 40555  82.5195 268.5709 0613026 256.8254  96.3838 13.59120392226358
0 DMSP 5D-2 F13 DEB
1 40558U 95015DR  19342.19418132  .00000544  00000-0  34941-3 0  9997
2 40558  98.8508 313.5517 0056604 325.7906  33.9621 14.06595142242728
0 DMSP 5D-2 F13 DEB
1 40559U 95015DS  19342.13815253  .00001351  00000-0  77195-3 0  9992
2 40559  98.6010 288.4082 0058884 284.9219  74.5437 14.10350477244977
0 DMSP 5D-2 F13 DEB
1 40562U 95015DV  19342.81665479  .00001826  00000-0  85430-3 0  9992
2 40562  98.7850 345.9200 0014282 231.7948 128.1943 14.21469447244864
